[{"OBJECT_NAME":"STARLINK-30076","OBJECT_ID":"2023-079S","EPOCH":"2026-03-09T22:00:01.999584","MEAN_MOTION":15.1691444,"ECCENTRICITY":8.779e-5,"INCLINATION":43.0004,"RA_OF_ASC_NODE":105.312,"ARG_OF_PERICENTER":257.756,"MEAN_ANOMALY":261.8384,"EPHEMERIS_TYPE":0,"CLASSIFICATION_TYPE":"U","NORAD_CAT_ID":56839,"ELEMENT_SET_NO":999,"REV_AT_EPOCH":572,"BSTAR":0.061744286,"MEAN_MOTION_DOT":0.01347453,"MEAN_MOTION_DDOT":0},{"OBJECT_NAME":"COSMOS 375 DEB","OBJECT_ID":"1970-091V","EPOCH":"2026-03-09T22:01:47.731584","MEAN_MOTION":14.28591479,"ECCENTRICITY":0.04283998,"INCLINATION":62.7761,"RA_OF_ASC_NODE":80.9886,"ARG_OF_PERICENTER":147.2789,"MEAN_ANOMALY":215.5608,"EPHEMERIS_TYPE":0,"CLASSIFICATION_TYPE":"U","NORAD_CAT_ID":4724,"ELEMENT_SET_NO":999,"REV_AT_EPOCH":74498,"BSTAR":0.00071367249,"MEAN_MOTION_DOT":4.733e-5,"MEAN_MOTION_DDOT":0}]
